[{"OBJECT_NAME":"STARLINK-2611","OBJECT_ID":"2021-038M","EPOCH":"2026-03-09T23:19:18.936480","MEAN_MOTION":15.30184448,"ECCENTRICITY":0.00013073,"INCLINATION":53.1615,"RA_OF_ASC_NODE":346.4921,"ARG_OF_PERICENTER":103.2737,"MEAN_ANOMALY":256.841,"EPHEMERIS_TYPE":0,"CLASSIFICATION_TYPE":"U","NORAD_CAT_ID":48364,"ELEMENT_SET_NO":999,"REV_AT_EPOCH":26727,"BSTAR":9.2811812e-5,"MEAN_MOTION_DOT":2.389e-5,"MEAN_MOTION_DDOT":0},{"OBJECT_NAME":"NEXSAT-1","OBJECT_ID":"2024-024E","EPOCH":"2026-03-09T22:47:24.778176","MEAN_MOTION":15.32166372,"ECCENTRICITY":0.00099795,"INCLINATION":97.3124,"RA_OF_ASC_NODE":144.1918,"ARG_OF_PERICENTER":108.5709,"MEAN_ANOMALY":251.6617,"EPHEMERIS_TYPE":0,"CLASSIFICATION_TYPE":"U","NORAD_CAT_ID":58921,"ELEMENT_SET_NO":999,"REV_AT_EPOCH":11669,"BSTAR":0.00031433612,"MEAN_MOTION_DOT":9.702e-5,"MEAN_MOTION_DDOT":0}]
